S-NET D                 
1 43186U 18014G   26159.55494740  .00005592  00000+0  28942-3 0  9995
2 43186  97.5367  64.3993 0009635  56.2812 303.9338 15.16591590457458
S-NET B                 
1 43187U 18014H   26158.97240562  .00005447  00000+0  28230-3 0  9991
2 43187  97.5372  63.8067 0010253  53.5740 306.6437 15.16556524457367
S-NET A                 
1 43188U 18014J   26158.69614311  .00006167  00000+0  31878-3 0  9990
2 43188  97.5380  63.7393 0010161  54.8789 305.3395 15.16591754457322
S-NET C                 
1 43189U 18014K   26159.70202485  .00005326  00000+0  27602-3 0  9995
2 43189  97.5400  64.8125 0011300  44.7747 315.4396 15.16555468456020
PAZ                     
1 43215U 18020A   26159.87347328  .00001951  00000+0  96105-4 0  9991
2 43215  97.4448 167.3775 0001724  87.5069 272.6363 15.19144646459747
GOES 17                 
1 43226U 18022A   26159.61118868 -.00000166  00000+0  00000+0 0  9994
2 43226   0.9144  85.8701 0000619  12.2529 289.4177  1.00271794 30331
LKW-4                   
1 43236U 18025A   26159.75086458  .00042071  00000+0  48948-3 0  9999
2 43236  97.6344 329.9684 0001855 338.4349  21.6830 15.61605431458714
ZHUHAI-1 OVS-02         
1 43440U 18040B   26159.83247514  .00007456  00000+0  30218-3 0  9993
2 43440  97.0395 177.5581 0001577 303.8782  56.2306 15.24914243451440
ZHUHAI-1 OHS-02         
1 43441U 18040C   26159.88780053  .00008306  00000+0  32767-3 0  9995
2 43441  97.0379 184.5414 0007376 255.6516 104.3904 15.25761653113011
GAOFEN-6                
1 43484U 18048A   26159.87164650  .00000758  00000+0  11540-3 0  9997
2 43484  97.7757 222.8609 0011355 195.5462 164.5401 14.76623595432168
LUOJIA-1 01             
1 43485U 18048B   26159.83168664  .00001852  00000+0  21145-3 0  9991
2 43485  97.8093 238.1537 0009820 141.8393 218.3520 14.87253242432973
PAKTES 1A               
1 43529U 18056A   26159.86140516  .00002993  00000+0  25071-3 0  9997
2 43529  98.1306 315.9930 0022346 132.1327 228.1799 14.99071780430672
PRSS-1                  
1 43530U 18056B   26159.81757175  .00001119  00000+0  14757-3 0  9997
2 43530  97.7816 227.9190 0001760  77.1638 282.9772 14.81976792427195
HAIYANG-1C              
1 43609U 18068A   26159.80329030  .00000256  00000+0  10687-3 0  9990
2 43609  98.5186 232.2325 0011929 116.4400 243.8010 14.34177001405889
SSTL S1-4               
1 43618U 18071A   26159.86221557  .00001533  00000+0  14093-3 0  9999
2 43618  97.5035  31.8224 0001436 105.6829 254.4552 14.96185150421697
HAIYANG-2B              
1 43655U 18081A   26159.89358623  .00000054  00000+0  95359-4 0  9991
2 43655  99.3289 168.7752 0000766  16.4617 343.6560 13.79308816383787
CFOSAT                  
1 43662U 18083A   26159.84506082  .00003329  00000+0  17509-3 0  9998
2 43662  97.3607 164.6220 0002419  96.8446 263.3063 15.16323273421170
TEN-KOH                 
1 43677U 18084G   26159.80143198  .00002695  00000+0  20550-3 0  9991
2 43677  98.0786 351.8114 0010601 140.4820 219.7179 15.02909686414907
DIWATA-2B               
1 43678U 18084H   26159.83379508  .00002814  00000+0  22880-3 0  9992
2 43678  98.1170 355.6802 0012014 197.6736 162.4070 15.00413798414964
STARS-AO                
1 43679U 18084J   26159.10290641  .00006497  00000+0  33294-3 0  9995
2 43679  98.0518  12.5148 0002232 157.5750 202.5580 15.16954130416099
AUTCUBE 2               
1 43681U 18084K   26159.81490560  .00003551  00000+0  22248-3 0  9993
2 43681  98.0722   5.5459 0010438  74.5308 285.7072 15.10034871415666
METOP-C                 
1 43689U 18087A   26159.76232730  .00000100  00000+0  65340-4 0  9999
2 43689  98.6646 219.5196 0001449 138.7732 221.3555 14.21509928393631
ES'HAIL 2               
1 43700U 18090A   26159.74067315  .00000161  00000+0  00000+0 0  9994
2 43700   0.0176 286.6340 0001921 190.0015  72.9424  1.00273374 27596
MOHAMMED VI-B           
1 43717U 18095A   26159.84476271  .00001018  00000+0  15133-3 0  9992
2 43717  97.9552 232.2845 0001207  90.3442 269.7906 14.77108571406953
HYSIS                   
1 43719U 18096A   26159.82049457  .00001406  00000+0  19883-3 0  9992
2 43719  97.9836 226.6339 0001687 110.8554 249.2837 14.78679978406185
COSMOS 2530 (RODNIK-S *)
1 43751U 18097A   26159.84401733 -.00000002  00000+0 -83795-4 0  9997
2 43751  82.5141 227.4580 0020488  57.1412 303.1636 12.42881065341257
COSMOS 2531 (RODNIK-S *)
1 43752U 18097B   26159.86649944 -.00000040  00000+0 -35920-3 0  9996
2 43752  82.5187 228.4997 0017897  75.4251 284.8812 12.42912467341279
COSMOS 2532 (RODNIK-S *)
1 43753U 18097C   26159.81425964 -.00000025  00000+0 -25139-3 0  9990
2 43753  82.5131 227.3220 0019302  77.4282 282.8955 12.42909410341231
MINXSS-2                
1 43758U 18099A   26159.74557091  .00034727  00000+0  70301-3 0  9991
2 43758  97.4536 235.7865 0006120 291.6091  68.4506 15.46336559412829
