OBJECT_NAME,OBJECT_ID,EPOCH,MEAN_MOTION,ECCENTRICITY,INCLINATION,RA_OF_ASC_NODE,ARG_OF_PERICENTER,MEAN_ANOMALY,EPHEMERIS_TYPE,CLASSIFICATION_TYPE,NORAD_CAT_ID,ELEMENT_SET_NO,REV_AT_EPOCH,BSTAR,MEAN_MOTION_DOT,MEAN_MOTION_DDOT
S-NET D,2018-014G,2026-06-08T13:19:07.455360,15.16591590,.0009636,97.5367,64.3993,56.2812,303.9338,0,U,43186,999,45745,.28942E-3,.5592E-4,0
S-NET B,2018-014H,2026-06-07T23:20:15.845568,15.16556524,.0010253,97.5372,63.8067,53.5740,306.6437,0,U,43187,999,45736,.28229546E-3,.5447E-4,0
S-NET A,2018-014J,2026-06-07T16:42:26.764704,15.16591754,.00101615,97.5380,63.7393,54.8789,305.3395,0,U,43188,999,45732,.31877648E-3,.6167E-4,0
S-NET C,2018-014K,2026-06-08T16:50:54.947040,15.16555468,.00113,97.5400,64.8125,44.7747,315.4396,0,U,43189,999,45602,.27602E-3,.5326E-4,0
PAZ,2018-020A,2026-06-08T20:57:48.091392,15.19144646,.0001724,97.4448,167.3775,87.5069,272.6363,0,U,43215,999,45974,.96105E-4,.1951E-4,0
GOES 17,2018-022A,2026-06-08T14:40:06.701952,1.00271794,.0000619,0.9144,85.8701,12.2529,289.4177,0,U,43226,999,3033,0,-.166E-5,0
LKW-4,2018-025A,2026-06-08T18:01:14.699712,15.61605431,.0001855,97.6344,329.9684,338.4349,21.6830,0,U,43236,999,45871,.48948E-3,.42071E-3,0
ZHUHAI-1 OVS-02,2018-040B,2026-06-08T19:58:45.852096,15.24914243,.0001577,97.0395,177.5581,303.8782,56.2306,0,U,43440,999,45144,.30218E-3,.7456E-4,0
ZHUHAI-1 OHS-02,2018-040C,2026-06-08T21:18:25.965792,15.25761653,.0007376,97.0379,184.5414,255.6516,104.3904,0,U,43441,999,11301,.32767E-3,.8306E-4,0
GAOFEN-6,2018-048A,2026-06-08T20:55:10.257600,14.76623595,.0011355,97.7757,222.8609,195.5462,164.5401,0,U,43484,999,43216,.1154E-3,.758E-5,0
LUOJIA-1 01,2018-048B,2026-06-08T19:57:37.725696,14.87253242,.000982,97.8093,238.1537,141.8393,218.3520,0,U,43485,999,43297,.21145E-3,.1852E-4,0
PAKTES 1A,2018-056A,2026-06-08T20:40:25.405824,14.99071780,.0022346,98.1306,315.9930,132.1327,228.1799,0,U,43529,999,43067,.25071E-3,.2993E-4,0
PRSS-1,2018-056B,2026-06-08T19:37:18.199200,14.81976792,.000176,97.7816,227.9190,77.1638,282.9772,0,U,43530,999,42719,.14757E-3,.1119E-4,0
HAIYANG-1C,2018-068A,2026-06-08T19:16:44.281920,14.34177001,.0011929,98.5186,232.2325,116.4400,243.8010,0,U,43609,999,40588,.10687E-3,.256E-5,0
SSTL S1-4,2018-071A,2026-06-08T20:41:35.425248,14.96185150,.0001436,97.5035,31.8224,105.6829,254.4552,0,U,43618,999,42169,.14093E-3,.1533E-4,0
HAIYANG-2B,2018-081A,2026-06-08T21:26:45.850272,13.79308816,.0000766,99.3289,168.7752,16.4617,343.6560,0,U,43655,999,38378,.95359E-4,.54E-6,0
CFOSAT,2018-083A,2026-06-08T20:16:53.254848,15.16323273,.0002419,97.3607,164.6220,96.8446,263.3063,0,U,43662,999,42117,.17509E-3,.3329E-4,0
TEN-KOH,2018-084G,2026-06-08T19:14:03.723072,15.02909686,.0010601,98.0786,351.8114,140.4820,219.7179,0,U,43677,999,41490,.2055E-3,.2695E-4,0
DIWATA-2B,2018-084H,2026-06-08T20:00:39.894912,15.00413798,.0012014,98.1170,355.6802,197.6736,162.4070,0,U,43678,999,41496,.2288E-3,.2814E-4,0
STARS-AO,2018-084J,2026-06-08T02:28:11.113824,15.16954130,.00022326,98.0518,12.5148,157.5750,202.5580,0,U,43679,999,41609,.33294369E-3,.6497E-4,0
AUTCUBE 2,2018-084K,2026-06-08T19:33:27.843840,15.10034871,.0010438,98.0722,5.5459,74.5308,285.7072,0,U,43681,999,41566,.22248E-3,.3551E-4,0
METOP-C,2018-087A,2026-06-08T18:17:45.078720,14.21509928,.0001449,98.6646,219.5196,138.7732,221.3555,0,U,43689,999,39363,.6534E-4,.1E-5,0
ES'HAIL 2,2018-090A,2026-06-08T17:46:34.160160,1.00273374,.0001921,0.0176,286.6340,190.0015,72.9424,0,U,43700,999,2759,0,.161E-5,0
MOHAMMED VI-B,2018-095A,2026-06-08T20:16:27.498144,14.77108571,.0001207,97.9552,232.2845,90.3442,269.7906,0,U,43717,999,40695,.15133E-3,.1018E-4,0
HYSIS,2018-096A,2026-06-08T19:41:30.730848,14.78679978,.0001687,97.9836,226.6339,110.8554,249.2837,0,U,43719,999,40618,.19883E-3,.1406E-4,0
COSMOS 2530 (RODNIK-S 16),2018-097A,2026-06-08T20:15:23.097312,12.42881065,.0020488,82.5141,227.4580,57.1412,303.1636,0,U,43751,999,34125,-.83795E-4,-.2E-7,0
COSMOS 2531 (RODNIK-S 17),2018-097B,2026-06-08T20:47:45.551616,12.42912467,.0017897,82.5187,228.4997,75.4251,284.8812,0,U,43752,999,34127,-.3592E-3,-.4E-6,0
COSMOS 2532 (RODNIK-S 18),2018-097C,2026-06-08T19:32:32.032896,12.42909410,.0019302,82.5131,227.3220,77.4282,282.8955,0,U,43753,999,34123,-.25139E-3,-.25E-6,0
MINXSS-2,2018-099A,2026-06-08T17:53:37.326624,15.46336559,.000612,97.4536,235.7865,291.6091,68.4506,0,U,43758,999,41282,.70301E-3,.34727E-3,0
